IRIDIUM 33 DEB          
1 39792U 97051AAZ 17340.20806104  .00000816  00000-0  43263-3 0  9994
2 39792  86.4356 314.7655 0188208 317.1684  41.4959 14.04014526179918
